{
  "type": "FeatureCollection",
  "features": [
    {
      "type": "Feature",
      "properties": {
        "norad_id": 24876,
        "name": "GPS BIIR-2  (PRN 13)",
        "group": "gnss",
        "lat": -19.278950649977897,
        "lon": -60.86249034837509,
        "alt_km": 20398.641490379425,
        "timestamp": "2025-12-23T11:34:48.409179+00:00",
        "meta_object_name": "GPS BIIR-2  (PRN 13)",
        "meta_object_id": "1997-035A",
        "meta_epoch": "2025-12-22T04:56:13.490880",
        "meta_mean_motion": 2.00563727,
        "meta_eccentricity": 0.00968316,
        "meta_inclination": 55.8997,
        "meta_ra_of_asc_node": 105.4987,
        "meta_arg_of_pericenter": 56.961,
        "meta_mean_anomaly": 303.9513,
        "meta_ephemeris_type": 0,
        "meta_classification_type": "U",
        "meta_norad_cat_id": 24876,
        "meta_element_set_no": 999,
        "meta_rev_at_epoch": 20840,
        "meta_bstar": 0,
        "meta_mean_motion_dot": 1.2e-07,
        "meta_mean_motion_ddot": 0,
        "tle_line1": "1 24876U 97035A   25356.20571170  .00000012  00000+0  00000+0 0  9996",
        "tle_line2": "2 24876  55.8997 105.4987 0096831  56.9610 303.9513  2.00563727208400"
      },
      "geometry": {
        "type": "Point",
        "coordinates": [
          -60.86249034837509,
          -19.278950649977897
        ]
      }
    },
    {
      "type": "Feature",
      "properties": {
        "norad_id": 26360,
        "name": "GPS BIIR-4  (PRN 20)",
        "group": "gnss",
        "lat": -47.864232715901174,
        "lon": -24.188382130175597,
        "alt_km": 20123.581345403338,
        "timestamp": "2025-12-23T11:34:48.409224+00:00",
        "meta_object_name": "GPS BIIR-4  (PRN 20)",
        "meta_object_id": "2000-025A",
        "meta_epoch": "2025-12-23T02:03:28.748160",
        "meta_mean_motion": 2.00566833,
        "meta_eccentricity": 0.0038893,
        "meta_inclination": 55.0513,
        "meta_ra_of_asc_node": 26.4195,
        "meta_arg_of_pericenter": 242.9692,
        "meta_mean_anomaly": 125.4419,
        "meta_ephemeris_type": 0,
        "meta_classification_type": "U",
        "meta_norad_cat_id": 26360,
        "meta_element_set_no": 999,
        "meta_rev_at_epoch": 18774,
        "meta_bstar": 0,
        "meta_mean_motion_dot": -5.8e-07,
        "meta_mean_motion_ddot": 0,
        "tle_line1": "1 26360U 00025A   25357.08574940 -.00000058  00000+0  00000+0 0  9995",
        "tle_line2": "2 26360  55.0513  26.4195 0038893 242.9692 125.4419  2.00566833187746"
      },
      "geometry": {
        "type": "Point",
        "coordinates": [
          -24.188382130175597,
          -47.864232715901174
        ]
      }
    },
    {
      "type": "Feature",
      "properties": {
        "norad_id": 26407,
        "name": "GPS BIIR-5  (PRN 22)",
        "group": "gnss",
        "lat": 35.88317594497184,
        "lon": 11.565698569396083,
        "alt_km": 20502.48273457336,
        "timestamp": "2025-12-23T11:34:48.409242+00:00",
        "meta_object_name": "GPS BIIR-5  (PRN 22)",
        "meta_object_id": "2000-040A",
        "meta_epoch": "2025-12-22T19:22:12.785952",
        "meta_mean_motion": 2.00568096,
        "meta_eccentricity": 0.01254555,
        "meta_inclination": 54.8886,
        "meta_ra_of_asc_node": 222.1687,
        "meta_arg_of_pericenter": 301.9761,
        "meta_mean_anomaly": 64.903,
        "meta_ephemeris_type": 0,
        "meta_classification_type": "U",
        "meta_norad_cat_id": 26407,
        "meta_element_set_no": 999,
        "meta_rev_at_epoch": 18641,
        "meta_bstar": 0,
        "meta_mean_motion_dot": 6.7e-07,
        "meta_mean_motion_ddot": 0,
        "tle_line1": "1 26407U 00040A   25356.80709243  .00000067  00000+0  00000+0 0  9998",
        "tle_line2": "2 26407  54.8886 222.1687 0125455 301.9761  64.9030  2.00568096186415"
      },
      "geometry": {
        "type": "Point",
        "coordinates": [
          11.565698569396083,
          35.88317594497184
        ]
      }
    },
    {
      "type": "Feature",
      "properties": {
        "norad_id": 27663,
        "name": "GPS BIIR-8  (PRN 16)",
        "group": "gnss",
        "lat": -54.90464319845913,
        "lon": 131.01162193335057,
        "alt_km": 20497.11189688729,
        "timestamp": "2025-12-23T11:34:48.409255+00:00",
        "meta_object_name": "GPS BIIR-8  (PRN 16)",
        "meta_object_id": "2003-005A",
        "meta_epoch": "2025-12-22T15:01:01.940160",
        "meta_mean_motion": 2.00570357,
        "meta_eccentricity": 0.0147807,
        "meta_inclination": 54.9212,
        "meta_ra_of_asc_node": 221.985,
        "meta_arg_of_pericenter": 51.9453,
        "meta_mean_anomaly": 319.9429,
        "meta_ephemeris_type": 0,
        "meta_classification_type": "U",
        "meta_norad_cat_id": 27663,
        "meta_element_set_no": 999,
        "meta_rev_at_epoch": 16777,
        "meta_bstar": 0,
        "meta_mean_motion_dot": 6.7e-07,
        "meta_mean_motion_ddot": 0,
        "tle_line1": "1 27663U 03005A   25356.62571690  .00000067  00000+0  00000+0 0  9990",
        "tle_line2": "2 27663  54.9212 221.9850 0147807  51.9453 319.9429  2.00570357167774"
      },
      "geometry": {
        "type": "Point",
        "coordinates": [
          131.01162193335057,
          -54.90464319845913
        ]
      }
    },
    {
      "type": "Feature",
      "properties": {
        "norad_id": 28190,
        "name": "GPS BIIR-11 (PRN 19)",
        "group": "gnss",
        "lat": 49.243583036783384,
        "lon": -22.87882783319599,
        "alt_km": 20224.60791604031,
        "timestamp": "2025-12-23T11:34:48.409268+00:00",
        "meta_object_name": "GPS BIIR-11 (PRN 19)",
        "meta_object_id": "2004-009A",
        "meta_epoch": "2025-12-22T01:59:41.237952",
        "meta_mean_motion": 2.00560473,
        "meta_eccentricity": 0.01084919,
        "meta_inclination": 54.9772,
        "meta_ra_of_asc_node": 282.8425,
        "meta_arg_of_pericenter": 167.7907,
        "meta_mean_anomaly": 330.6754,
        "meta_ephemeris_type": 0,
        "meta_classification_type": "U",
        "meta_norad_cat_id": 28190,
        "meta_element_set_no": 999,
        "meta_rev_at_epoch": 15939,
        "meta_bstar": 0,
        "meta_mean_motion_dot": -2.4e-07,
        "meta_mean_motion_ddot": 0,
        "tle_line1": "1 28190U 04009A   25356.08311618 -.00000024  00000+0  00000+0 0  9997",
        "tle_line2": "2 28190  54.9772 282.8425 0108491 167.7907 330.6754  2.00560473159399"
      },
      "geometry": {
        "type": "Point",
        "coordinates": [
          -22.87882783319599,
          49.243583036783384
        ]
      }
    },
    {
      "type": "Feature",
      "properties": {
        "norad_id": 28474,
        "name": "GPS BIIR-13 (PRN 02)",
        "group": "gnss",
        "lat": 39.42722240209527,
        "lon": 117.1497909909195,
        "alt_km": 20631.692272078282,
        "timestamp": "2025-12-23T11:34:48.409281+00:00",
        "meta_object_name": "GPS BIIR-13 (PRN 02)",
        "meta_object_id": "2004-045A",
        "meta_epoch": "2025-12-21T13:21:16.085088",
        "meta_mean_motion": 2.00569985,
        "meta_eccentricity": 0.0170919,
        "meta_inclination": 55.2363,
        "meta_ra_of_asc_node": 332.0513,
        "meta_arg_of_pericenter": 309.6441,
        "meta_mean_anomaly": 228.908,
        "meta_ephemeris_type": 0,
        "meta_classification_type": "U",
        "meta_norad_cat_id": 28474,
        "meta_element_set_no": 999,
        "meta_rev_at_epoch": 15486,
        "meta_bstar": 0,
        "meta_mean_motion_dot": -7.1e-07,
        "meta_mean_motion_ddot": 0,
        "tle_line1": "1 28474U 04045A   25355.55643617 -.00000071  00000+0  00000+0 0  9992",
        "tle_line2": "2 28474  55.2363 332.0513 0170919 309.6441 228.9080  2.00569985154869"
      },
      "geometry": {
        "type": "Point",
        "coordinates": [
          117.1497909909195,
          39.42722240209527
        ]
      }
    },
    {
      "type": "Feature",
      "properties": {
        "norad_id": 28874,
        "name": "GPS BIIRM-1 (PRN 17)",
        "group": "gnss",
        "lat": 55.03508245379474,
        "lon": 8.810371019426734,
        "alt_km": 20490.419890358513,
        "timestamp": "2025-12-23T11:34:48.409293+00:00",
        "meta_object_name": "GPS BIIRM-1 (PRN 17)",
        "meta_object_id": "2005-038A",
        "meta_epoch": "2025-12-23T02:44:01.154400",
        "meta_mean_motion": 2.00577746,
        "meta_eccentricity": 0.013132,
        "meta_inclination": 55.0227,
        "meta_ra_of_asc_node": 280.2833,
        "meta_arg_of_pericenter": 293.7944,
        "meta_mean_anomaly": 248.5863,
        "meta_ephemeris_type": 0,
        "meta_classification_type": "U",
        "meta_norad_cat_id": 28874,
        "meta_element_set_no": 999,
        "meta_rev_at_epoch": 14830,
        "meta_bstar": 0,
        "meta_mean_motion_dot": -2e-07,
        "meta_mean_motion_ddot": 0,
        "tle_line1": "1 28874U 05038A   25357.11390225 -.00000020  00000+0  00000+0 0  9991",
        "tle_line2": "2 28874  55.0227 280.2833 0131320 293.7944 248.5863  2.00577746148306"
      },
      "geometry": {
        "type": "Point",
        "coordinates": [
          8.810371019426734,
          55.03508245379474
        ]
      }
    }
  ]
}